IRIDIUM 112             
1 41925U 17003J   25084.80105618  .00000321  00000+0  10763-3 0  9995
2 41925  86.3905 275.6441 0002239  90.4529 269.6923 14.34218988429008
IRIDIUM 111             
1 41926U 17003K   25084.92789492 -.00000049  00000+0 -24542-4 0  9997
2 41926  86.3905 275.6515 0001892  87.7729 272.3683 14.34217165429006
IRIDIUM 113             
1 42803U 17039A   25084.90785878  .00000242  00000+0  79473-4 0  9999
2 42803  86.4007 149.5576 0002580  93.6334 266.5157 14.34212140406930
IRIDIUM 123             
1 42804U 17039B   25084.67026606  .00000327  00000+0  10964-3 0  9994
2 42804  86.4046 181.0760 0001970  90.4146 269.7276 14.34215234405661
IRIDIUM 120             
1 42805U 17039C   25084.90151457  .00000294  00000+0  98085-4 0  9998
2 42805  86.3995 149.4007 0001909  98.1061 262.0351 14.34219843406929
IRIDIUM 115             
1 42806U 17039D   25084.89469919  .00001074  00000+0  31338-3 0  9996
2 42806  86.4535 149.4707 0001939  79.4595 280.6825 14.43285497409603
IRIDIUM 118             
1 42807U 17039E   25084.00429309  .00000921  00000+0  32176-3 0  9990
2 42807  86.4046 181.3539 0002234  96.3938 263.7512 14.34214963405563
IRIDIUM 117             
1 42808U 17039F   25084.02331649  .00000961  00000+0  33615-3 0  9995
2 42808  86.4046 181.3078 0002080  87.4651 272.6783 14.34220020405597
